{"epoch":1784902576,"count":18312,"objects":[{"id":"33459","name":"EUTE HOT BIRD 13C (HB 9)","type":"PAYLOAD","l1":"1 33459U 08065A   26205.24391117 -.00000281  00000-0  00000-0 0  9998","l2":"2 33459   3.0425  78.7507 0003308  43.5310 217.1641  1.00274344 47710"},{"id":"33595","name":"EXPRESS AM-44","type":"PAYLOAD","l1":"1 33595U 09007A   26205.25171122 -.00000088  00000-0  00000-0 0  9994","l2":"2 33595   3.5563  77.9406 0004039  34.6728 268.9501  1.00272155 52650"},{"id":"33749","name":"NSS 9","type":"PAYLOAD","l1":"1 33749U 09008A   26205.29017310  .00000075  00000-0  00000-0 0  9993","l2":"2 33749   1.3546  82.2893 0002439  25.9103 121.3293  1.00272060 63892"},{"id":"34111","name":"TELSTAR 11N","type":"PAYLOAD","l1":"1 34111U 09009A   26205.24642451 -.00000245  00000-0  00000-0 0  9993","l2":"2 34111   0.0583 254.2773 0002614 216.3735 242.4787  1.00271726 46615"},{"id":"34713","name":"WGS F2 (USA 204)","type":"PAYLOAD","l1":"1 34713U 09017A   26205.21155848  .00000073  00000-0  00000-0 0  9994","l2":"2 34713   0.0147  66.7136 0000479  53.5532 315.3374  1.00273292 45982"},{"id":"34941","name":"SES 7 (PROTOSTAR 2)","type":"PAYLOAD","l1":"1 34941U 09027A   26205.27519800 -.00000340  00000-0  00000-0 0  9994","l2":"2 34941   0.0092  38.8810 0000790 148.0352 322.3870  1.00274451 63009"},{"id":"35362","name":"MEASAT 3A","type":"PAYLOAD","l1":"1 35362U 09032A   26205.21424312 -.00000105  00000-0  00000-0 0  9994","l2":"2 35362   0.0217  14.2939 0002994  97.4595  67.3108  1.00272603  8400"},{"id":"35491","name":"EWS-G3","type":"PAYLOAD","l1":"1 35491U 09033A   26205.27753801 -.00000354  00000-0  00000-0 0  9998","l2":"2 35491   1.7824  82.5821 0002282  40.1942  38.4642  1.00094104  6963"},{"id":"35493","name":"SIRIUS FM-5","type":"PAYLOAD","l1":"1 35493U 09034A   26205.01693882 -.00000195  00000-0  00000-0 0  9998","l2":"2 35493   0.0436 260.0747 0000828 141.3354 180.2467  1.00270498 47015"},{"id":"35496","name":"TERRESTAR 1","type":"PAYLOAD","l1":"1 35496U 09035A   26205.23102949 -.00000056  00000-0  00000-0 0  9991","l2":"2 35496   5.1955  48.7577 0002517  69.6932 155.6810  1.00273214 62501"},{"id":"35696","name":"ASIASAT 5","type":"PAYLOAD","l1":"1 35696U 09042A   26205.13011303 -.00000302  00000-0  00000-0 0  9997","l2":"2 35696   0.0151  62.9382 0001312  36.9874 349.2880  1.00269396 62088"},{"id":"35755","name":"JCSAT 12","type":"PAYLOAD","l1":"1 35755U 09044A   26205.28005134 -.00000322  00000-0  00000-0 0  9998","l2":"2 35755   0.0357 280.2174 0000609 257.7833 356.8663  1.00271772 61984"},{"id":"35756","name":"OPTUS D3","type":"PAYLOAD","l1":"1 35756U 09044B   26204.92838352 -.00000140  00000-0  00000-0 0  9993","l2":"2 35756   0.8970 268.1142 0003524 212.3044 311.5813  1.00271235 61938"},{"id":"35873","name":"NIMIQ 5","type":"PAYLOAD","l1":"1 35873U 09050A   26205.30197116 -.00000252  00000-0  00000-0 0  9993","l2":"2 35873   0.0600 254.7163 0002943 217.3995 225.9180  1.00271523 61719"},{"id":"35942","name":"AMAZONAS 2","type":"PAYLOAD","l1":"1 35942U 09054A   26205.30019753 -.00000256  00000-0  00000-0 0  9998","l2":"2 35942   1.9085  82.5729 0003492  35.3838 220.1466  1.00271889 61553"},{"id":"35943","name":"COMSATBW-1","type":"PAYLOAD","l1":"1 35943U 09054B   26205.19628041  .00000030  00000-0  00000-0 0  9991","l2":"2 35943   0.0684 148.7322 0003013 333.9277 312.9247  1.00272945 61670"},{"id":"36032","name":"NSS 12","type":"PAYLOAD","l1":"1 36032U 09058A   26205.21155848  .00000077  00000-0  00000-0 0  9999","l2":"2 36032   0.0715 268.0870 0005180 178.1310 348.8750  1.00270379 61286"},{"id":"36033","name":"THOR 6","type":"PAYLOAD","l1":"1 36033U 09058B   26205.25370456 -.00000004  00000-0  00000-0 0  9999","l2":"2 36033   0.0402 236.1243 0002058 256.0126 260.3342  1.00273148 61374"},{"id":"36097","name":"INTELSAT 14","type":"PAYLOAD","l1":"1 36097U 09064A   26205.24495118 -.00000268  00000-0  00000-0 0  9990","l2":"2 36097   0.0156  56.5932 0002603  66.9769 221.5735  1.00272324 60971"},{"id":"36101","name":"EUTE 36B (EUTE W7)","type":"PAYLOAD","l1":"1 36101U 09065A   26205.26384461  .00000117  00000-0  00000-0 0  9999","l2":"2 36101   0.5815  81.3615 0005797  37.8970 328.1957  1.00273224 61089"},{"id":"36106","name":"INTELSAT 15","type":"PAYLOAD","l1":"1 36106U 09067A   26205.14975341 -.00000180  00000-0  00000-0 0  9997","l2":"2 36106   0.0138  59.9310 0002426  62.3050 318.6981  1.00272017 41592"},{"id":"36108","name":"WGS F3 (USA 211)","type":"PAYLOAD","l1":"1 36108U 09068A   26205.28469554  .00000069  00000-0  00000-0 0  9994","l2":"2 36108   0.2925  85.6731 0000591  22.4441 166.3561  1.00270570 46965"},{"id":"36131","name":"DIRECTV 12","type":"PAYLOAD","l1":"1 36131U 09075A   26205.32495211 -.00000098  00000-0  00000-0 0  9995","l2":"2 36131   0.0344 227.4270 0000220 305.4114 143.4666  1.00272090 46925"},{"id":"36287","name":"BEIDOU 3","type":"PAYLOAD","l1":"1 36287U 10001A   26204.92526351 -.00000279  00000-0  00000-0 0  9994","l2":"2 36287   4.3777  60.2793 0001618 300.2956  54.6057  1.00269842 60537"},{"id":"36395","name":"SDO","type":"PAYLOAD","l1":"1 36395U 10005A   26205.23547819 -.00000101  00000-0  00000-0 0  9999","l2":"2 36395  34.7257  85.7785 0001541  47.6832 151.1586  1.00277666 60432"},{"id":"36397","name":"INTELSAT 16","type":"PAYLOAD","l1":"1 36397U 10006A   26205.29818340 -.00000239  00000-0  00000-0 0  9990","l2":"2 36397   0.0139  18.9855 0002166 100.3718 213.8080  1.00272073 60026"},{"id":"36411","name":"EWS-G2","type":"PAYLOAD","l1":"1 36411U 10008A   26205.19628041  .00000026  00000-0  00000-0 0  9998","l2":"2 36411   1.3769  82.3590 0005677  52.9072 300.5568  1.00272507 60007"},{"id":"36499","name":"ECHOSTAR 14","type":"PAYLOAD","l1":"1 36499U 10010A   26205.32070414  .00000000  00000-0  00000-0 0  9999","l2":"2 36499   0.0244  59.7007 0002167  53.7711 185.1432  1.00272803 46929"},{"id":"36516","name":"SES 1","type":"PAYLOAD","l1":"1 36516U 10016A   26205.32544934 -.00000109  00000-0  00000-0 0  9999","l2":"2 36516   0.0464 276.9045 0002733 199.1987 202.1047  1.00272248 59409"},{"id":"36581","name":"ASTRA 3B","type":"PAYLOAD","l1":"1 36581U 10021A   26205.22822350  .00000141  00000-0  00000-0 0  9992","l2":"2 36581   1.5618  83.0912 0004175  30.6047 293.9265  1.00274291 59237"},{"id":"36582","name":"COMSATBW-2","type":"PAYLOAD","l1":"1 36582U 10021B   26205.22822350  .00000093  00000-0  00000-0 0  9999","l2":"2 36582   0.0428 142.3404 0002492 348.2271 266.7239  1.00271214 59324"},{"id":"36590","name":"BEIDOU 4","type":"PAYLOAD","l1":"1 36590U 10024A   26205.11433727 -.00000134  00000-0  00000-0 0  9992","l2":"2 36590   4.6012  61.3431 0007272 359.9632   1.2723  1.00273676 59147"}]}