OBJECT_NAME,OBJECT_ID,EPOCH,MEAN_MOTION,ECCENTRICITY,INCLINATION,RA_OF_ASC_NODE,ARG_OF_PERICENTER,MEAN_ANOMALY,EPHEMERIS_TYPE,CLASSIFICATION_TYPE,NORAD_CAT_ID,ELEMENT_SET_NO,REV_AT_EPOCH,BSTAR,MEAN_MOTION_DOT,MEAN_MOTION_DDOT
EUTELSAT HOTBIRD 13C,2008-065A,2026-07-24T05:51:13.925088,1.00274344,.0003308,3.0425,78.7507,43.5310,217.1641,0,U,33459,999,4771,0,-.281E-5,0
EXPRESS-AM44,2009-007A,2026-07-24T06:02:27.849408,1.00272155,.00040389,3.5563,77.9406,34.6728,268.9501,0,U,33595,999,5265,0,-.88E-6,0
NSS-9,2009-008A,2026-07-24T06:57:50.955840,1.00272060,.00024385,1.3546,82.2893,25.9103,121.3293,0,U,33749,999,6389,0,.75E-6,0
TELSTAR 11N,2009-009A,2026-07-24T05:54:51.077664,1.00271726,.00026143,0.0583,254.2773,216.3735,242.4787,0,U,34111,999,4661,0,-.245E-5,0
WGS F2 (USA 204),2009-017A,2026-07-24T05:04:38.652672,1.00273292,.00004792,0.0147,66.7136,53.5532,315.3374,0,U,34713,999,4598,0,.73E-6,0
SES-7 (PROTOSTAR 2),2009-027A,2026-07-24T06:36:17.107200,1.00274451,.00007903,0.0092,38.8810,148.0352,322.3870,0,U,34941,999,6300,0,-.34E-5,0
MEASAT-3A,2009-032A,2026-07-24T05:08:30.605568,1.00272603,.00029937,0.0217,14.2939,97.4595,67.3108,0,U,35362,999,840,0,-.105E-5,0
EWS-G3 (GOES 14),2009-033A,2026-07-24T06:39:39.284064,1.00094104,.0002282,1.7824,82.5821,40.1942,38.4642,0,U,35491,999,696,0,-.354E-5,0
FM-5,2009-034A,2026-07-24T00:24:23.514048,1.00270498,.00008276,0.0436,260.0747,141.3354,180.2467,0,U,35493,999,4701,0,-.195E-5,0
TERRESTAR-1,2009-035A,2026-07-24T05:32:40.947936,1.00273214,.00025166,5.1955,48.7577,69.6932,155.6810,0,U,35496,999,6250,0,-.56E-6,0
ASIASAT 5,2009-042A,2026-07-24T03:07:21.765792,1.00269396,.00013116,0.0151,62.9382,36.9874,349.2880,0,U,35696,999,6208,0,-.302E-5,0
JCSAT-12 (JCSAT-RA),2009-044A,2026-07-24T06:43:16.435776,1.00271772,.00006089,0.0357,280.2174,257.7833,356.8663,0,U,35755,999,6198,0,-.322E-5,0
OPTUS D3,2009-044B,2026-07-23T22:16:52.336128,1.00271235,.0003524,0.8970,268.1142,212.3044,311.5813,0,U,35756,999,6193,0,-.14E-5,0
NIMIQ 5,2009-050A,2026-07-24T07:14:50.308224,1.00271523,.00029432,0.0600,254.7163,217.3995,225.9180,0,U,35873,999,6171,0,-.252E-5,0
AMAZONAS 2,2009-054A,2026-07-24T07:12:17.066592,1.00271889,.00034924,1.9085,82.5729,35.3838,220.1466,0,U,35942,999,6155,0,-.256E-5,0
COMSATBW-1,2009-054B,2026-07-24T04:42:38.627424,1.00272945,.00030126,0.0684,148.7322,333.9277,312.9247,0,U,35943,999,6167,0,.3E-6,0
NSS-12,2009-058A,2026-07-24T05:04:38.652672,1.00270379,.00051802,0.0715,268.0870,178.1310,348.8750,0,U,36032,999,6128,0,.77E-6,0
THOR 6,2009-058B,2026-07-24T06:05:20.073984,1.00273148,.00020576,0.0402,236.1243,256.0126,260.3342,0,U,36033,999,6137,0,-.4E-7,0
INTELSAT 14 (IS-14),2009-064A,2026-07-24T05:52:43.781952,1.00272324,.00026027,0.0156,56.5932,66.9769,221.5735,0,U,36097,999,6097,0,-.268E-5,0
EUTELSAT 36B,2009-065A,2026-07-24T06:19:56.174304,1.00273224,.00057973,0.5815,81.3615,37.8970,328.1957,0,U,36101,999,6108,0,.117E-5,0
INTELSAT 15 (IS-15),2009-067A,2026-07-24T03:35:38.694624,1.00272017,.00024261,0.0138,59.9310,62.3050,318.6981,0,U,36106,999,4159,0,-.18E-5,0
WGS F3 (USA 211),2009-068A,2026-07-24T06:49:57.694656,1.00270570,.00005907,0.2925,85.6731,22.4441,166.3561,0,U,36108,999,4696,0,.69E-6,0
DIRECTV 12,2009-075A,2026-07-24T07:47:55.862304,1.00272090,.000022,0.0344,227.4270,305.4114,143.4666,0,U,36131,999,4692,0,-.98E-6,0
BEIDOU-2 G1,2010-001A,2026-07-23T22:12:22.767264,1.00269842,.00016177,4.3777,60.2793,300.2956,54.6057,0,U,36287,999,6053,0,-.279E-5,0
SDO,2010-005A,2026-07-24T05:39:05.315616,1.00277666,.00015406,34.7257,85.7785,47.6832,151.1586,0,U,36395,999,6043,0,-.101E-5,0
INTELSAT 16 (IS-16),2010-006A,2026-07-24T07:09:23.045760,1.00272073,.00021658,0.0139,18.9855,100.3718,213.8080,0,U,36397,999,6002,0,-.239E-5,0
EWS-G2 (GOES 15),2010-008A,2026-07-24T04:42:38.627424,1.00272507,.00056766,1.3769,82.3590,52.9072,300.5568,0,U,36411,999,6000,0,.26E-6,0
ECHOSTAR 14,2010-010A,2026-07-24T07:41:48.837696,1.00272803,.00021672,0.0244,59.7007,53.7711,185.1432,0,U,36499,999,4692,0,0,0
SES-1,2010-016A,2026-07-24T07:48:38.822976,1.00272248,.00027334,0.0464,276.9045,199.1987,202.1047,0,U,36516,999,5940,0,-.109E-5,0
ASTRA 3B,2010-021A,2026-07-24T05:28:38.510400,1.00274291,.00041746,1.5618,83.0912,30.6047,293.9265,0,U,36581,999,5923,0,.141E-5,0
COMSATBW-2,2010-021B,2026-07-24T05:28:38.510400,1.00271214,.00024917,0.0428,142.3404,348.2271,266.7239,0,U,36582,999,5932,0,.93E-6,0
BEIDOU-2 G3,2010-024A,2026-07-24T02:44:38.740128,1.00273676,.00072717,4.6012,61.3431,359.9632,1.2723,0,U,36590,999,5914,0,-.134E-5,0
